{
    "links": {
        "self": "http://www.neowsapp.com/rest/v1/neo/3596036?api_key=iIulBulltgU6a56xZRHN4H3l9WmuAYTsLGpBGhQ2"
    },
    "id": "3596036",
    "neo_reference_id": "3596036",
    "name": "(2012 BC14)",
    "designation": "2012 BC14",
    "nasa_jpl_url": "http://ssd.jpl.nasa.gov/sbdb.cgi?sstr=3596036",
    "absolute_magnitude_h": 24.7,
    "estimated_diameter": {
        "kilometers": {
            "estimated_diameter_min": 0.0305179233,
            "estimated_diameter_max": 0.0682401509
        },
        "meters": {
            "estimated_diameter_min": 30.5179232594,
            "estimated_diameter_max": 68.2401509401
        },
        "miles": {
            "estimated_diameter_min": 0.0189629525,
            "estimated_diameter_max": 0.0424024508
        },
        "feet": {
            "estimated_diameter_min": 100.1244233463,
            "estimated_diameter_max": 223.8850168104
        }
    },
    "is_potentially_hazardous_asteroid": false,
    "close_approach_data": [
        {
            "close_approach_date": "2012-01-01",
            "close_approach_date_full": "2012-Jan-01 07:34",
            "epoch_date_close_approach": 1325403240000,
            "relative_velocity": {
                "kilometers_per_second": "12.7479591458",
                "kilometers_per_hour": "45892.6529249866",
                "miles_per_hour": "28515.9098133062"
            },
            "miss_distance": {
                "astronomical": "0.0197501252",
                "lunar": "7.6827987028",
                "kilometers": "2954576.662153324",
                "miles": "1835888.8065669112"
            },
            "orbiting_body": "Earth"
        }
    ],
    "orbital_data": {
        "orbit_id": "5",
        "orbit_determination_date": "2017-04-06 08:51:20",
        "first_observation_date": "2012-01-20",
        "last_observation_date": "2012-01-21",
        "data_arc_in_days": 1,
        "observations_used": 20,
        "orbit_uncertainty": "9",
        "minimum_orbit_intersection": ".00879343",
        "jupiter_tisserand_invariant": "4.596",
        "epoch_osculation": "2455947.5",
        "eccentricity": ".4649656717832854",
        "semi_major_axis": "1.414647726335209",
        "inclination": "6.481514147315014",
        "ascending_node_longitude": "105.7669678106057",
        "orbital_period": "614.5693337704538",
        "perihelion_distance": ".7568850959230611",
        "perihelion_argument": "281.2058157350159",
        "aphelion_distance": "2.072410356747356",
        "perihelion_time": "2455878.400200870595",
        "mean_anomaly": "40.47700775105245",
        "mean_motion": ".5857760552277453",
        "equinox": "J2000",
        "orbit_class": {
            "orbit_class_type": "APO",
            "orbit_class_description": "Near-Earth asteroid orbits which cross the Earth’s orbit similar to that of 1862 Apollo",
            "orbit_class_range": "a (semi-major axis) > 1.0 AU; q (perihelion) < 1.017 AU"
        }
    },
    "is_sentry_object": false
}